start=new Date('2022-07-01T00:00:00.000Z').valueOf();
sats=[{"FILE":"3505946","REF_FRAME":"TEME","CENTER_NAME":"EARTH","MEAN_ANOMALY":"301.3277","ECCENTRICITY":"0.00014550","CLASSIFICATION_TYPE":"U","LAUNCH_DATE":"2020-09-03","TLE_LINE2":"2 46362  53.0540 263.3962 0001455  58.7855 301.3277 15.06392523101757","MEAN_MOTION":"15.06392523","RA_OF_ASC_NODE":"263.3962","ARG_OF_PERICENTER":"58.7855","REV_AT_EPOCH":"10175","MEAN_MOTION_DDOT":"0.0000000000000","SEMIMAJOR_AXIS":"6925.371","OBJECT_TYPE":"PAYLOAD","NORAD_CAT_ID":"46362","RCS_SIZE":"LARGE","SITE":"AFETR","INCLINATION":"53.0540","EPOCH":"2022-06-30T14:37:02.722656","ELEMENT_SET_NO":"999","TLE_LINE1":"1 46362U 20062AP  22181.60905929 -.00000038  00000-0  16347-4 0  9992","DECAY_DATE":null,"OBJECT_ID":"2020-062AP","APOAPSIS":"548.244","PERIOD":"95.593","OBJECT_NAME":"STARLINK-1726","EPHEMERIS_TYPE":"0","TIME_SYSTEM":"UTC","GP_ID":"207174648","PERIAPSIS":"546.229","COUNTRY_CODE":"US","BSTAR":"0.00001634700000","MEAN_ELEMENT_THEORY":"SGP4","MEAN_MOTION_DOT":"-0.00000038"},{"ECCENTRICITY":"0.00017180","REF_FRAME":"TEME","FILE":"3505840","MEAN_ANOMALY":"297.8749","CENTER_NAME":"EARTH","REV_AT_EPOCH":"10190","ARG_OF_PERICENTER":"62.2414","LAUNCH_DATE":"2020-09-03","CLASSIFICATION_TYPE":"U","RA_OF_ASC_NODE":"263.4052","TLE_LINE2":"2 46363  53.0544 263.4052 0001718  62.2414 297.8749 15.06395125101907","MEAN_MOTION":"15.06395125","MEAN_MOTION_DDOT":"0.0000000000000","NORAD_CAT_ID":"46363","SITE":"AFETR","RCS_SIZE":"LARGE","SEMIMAJOR_AXIS":"6925.363","OBJECT_TYPE":"PAYLOAD","ELEMENT_SET_NO":"999","INCLINATION":"53.0544","EPOCH":"2022-06-30T14:25:03.641376","DECAY_DATE":null,"TLE_LINE1":"1 46363U 20062AQ  22181.60073659  .00000554  00000-0  56129-4 0  9993","PERIOD":"95.592","OBJECT_ID":"2020-062AQ","APOAPSIS":"548.418","COUNTRY_CODE":"US","MEAN_ELEMENT_THEORY":"SGP4","BSTAR":"0.00005612900000","GP_ID":"207153069","TIME_SYSTEM":"UTC","EPHEMERIS_TYPE":"0","OBJECT_NAME":"STARLINK-1739","PERIAPSIS":"546.039","MEAN_MOTION_DOT":"0.00000554"},{"NORAD_CAT_ID":"46364","SITE":"AFETR","RCS_SIZE":"LARGE","SEMIMAJOR_AXIS":"6925.378","OBJECT_TYPE":"PAYLOAD","MEAN_MOTION_DDOT":"0.0000000000000","ARG_OF_PERICENTER":"138.5619","REV_AT_EPOCH":"10202","CLASSIFICATION_TYPE":"U","LAUNCH_DATE":"2020-09-03","TLE_LINE2":"2 46364  53.0525 243.9061 0001522 138.5619 221.5486 15.06390284102024","MEAN_MOTION":"15.06390284","RA_OF_ASC_NODE":"243.9061","ECCENTRICITY":"0.00015220","FILE":"3505946","REF_FRAME":"TEME","MEAN_ANOMALY":"221.5486","CENTER_NAME":"EARTH","MEAN_MOTION_DOT":"0.00000625","COUNTRY_CODE":"US","BSTAR":"0.00006088400000","MEAN_ELEMENT_THEORY":"SGP4","EPHEMERIS_TYPE":"0","OBJECT_NAME":"STARLINK-1763","TIME_SYSTEM":"UTC","GP_ID":"207174146","PERIAPSIS":"546.189","TLE_LINE1":"1 46364U 20062AR  22181.60358947  .00000625  00000-0  60884-4 0  9992","DECAY_DATE":null,"OBJECT_ID":"2020-062AR","APOAPSIS":"548.297","PERIOD":"95.593","ELEMENT_SET_NO":"999","INCLINATION":"53.0525","EPOCH":"2022-06-30T14:29:10.130208"},{"SEMIMAJOR_AXIS":"6925.444","OBJECT_TYPE":"PAYLOAD","NORAD_CAT_ID":"46365","SITE":"AFETR","RCS_SIZE":"LARGE","MEAN_MOTION_DDOT":"0.0000000000000","LAUNCH_DATE":"2020-09-03","CLASSIFICATION_TYPE":"U","RA_OF_ASC_NODE":"263.8144","TLE_LINE2":"2 46365  53.0551 263.8144 0001481  62.4763 297.6376 15.06368724101739","MEAN_MOTION":"15.06368724","REV_AT_EPOCH":"10173","ARG_OF_PERICENTER":"62.4763","REF_FRAME":"TEME","FILE":"3505769","CENTER_NAME":"EARTH","MEAN_ANOMALY":"297.6376","ECCENTRICITY":"0.00014810","MEAN_MOTION_DOT":"-0.00002224","GP_ID":"207146617","EPHEMERIS_TYPE":"0","TIME_SYSTEM":"UTC","OBJECT_NAME":"STARLINK-1550","PERIAPSIS":"546.284","COUNTRY_CODE":"US","MEAN_ELEMENT_THEORY":"SGP4","BSTAR":"-0.00013058000000","DECAY_DATE":null,"TLE_LINE1":"1 46365U 20062AS  22181.51324923 -.00002224  00000-0 -13058-3 0  9999","PERIOD":"95.594","APOAPSIS":"548.335","OBJECT_ID":"2020-062AS","INCLINATION":"53.0551","EPOCH":"2022-06-30T12:19:04.733472","ELEMENT_SET_NO":"999"},{"MEAN_MOTION_DDOT":"0.0000000000000","SEMIMAJOR_AXIS":"6925.364","OBJECT_TYPE":"PAYLOAD","NORAD_CAT_ID":"46366","SITE":"AFETR","RCS_SIZE":"LARGE","FILE":"3505769","REF_FRAME":"TEME","CENTER_NAME":"EARTH","MEAN_ANOMALY":"265.8384","ECCENTRICITY":"0.00015730","LAUNCH_DATE":"2020-09-03","CLASSIFICATION_TYPE":"U","MEAN_MOTION":"15.06394963","TLE_LINE2":"2 46366  53.0567 263.8703 0001573  94.2785 265.8384 15.06394963101737","RA_OF_ASC_NODE":"263.8703","ARG_OF_PERICENTER":"94.2785","REV_AT_EPOCH":"10173","OBJECT_NAME":"STARLINK-1651","EPHEMERIS_TYPE":"0","TIME_SYSTEM":"UTC","GP_ID":"207146367","PERIAPSIS":"546.140","COUNTRY_CODE":"US","BSTAR":"0.00001047900000","MEAN_ELEMENT_THEORY":"SGP4","MEAN_MOTION_DOT":"-0.00000125","INCLINATION":"53.0567","EPOCH":"2022-06-30T12:03:06.623136","ELEMENT_SET_NO":"999","TLE_LINE1":"1 46366U 20062AT  22181.50215999 -.00000125  00000-0  10479-4 0  9993","DECAY_DATE":null,"OBJECT_ID":"2020-062AT","APOAPSIS":"548.318","PERIOD":"95.592"},{"TLE_LINE1":"1 46368U 20062AV  22181.69980234 -.00000102  00000-0  12068-4 0  9997","DECAY_DATE":null,"APOAPSIS":"548.207","OBJECT_ID":"2020-062AV","PERIOD":"95.592","INCLINATION":"53.0543","EPOCH":"2022-06-30T16:47:42.922176","ELEMENT_SET_NO":"999","MEAN_MOTION_DOT":"-0.00000102","EPHEMERIS_TYPE":"0","OBJECT_NAME":"STARLINK-1658","TIME_SYSTEM":"UTC","GP_ID":"207174897","PERIAPSIS":"546.243","COUNTRY_CODE":"US","BSTAR":"0.00001206800000","MEAN_ELEMENT_THEORY":"SGP4","CLASSIFICATION_TYPE":"U","LAUNCH_DATE":"2020-09-03","TLE_LINE2":"2 46368  53.0543 287.9652 0001418  67.6734 292.4405 15.06396192101421","MEAN_MOTION":"15.06396192","RA_OF_ASC_NODE":"287.9652","ARG_OF_PERICENTER":"67.6734","REV_AT_EPOCH":"10142","FILE":"3505946","REF_FRAME":"TEME","CENTER_NAME":"EARTH","MEAN_ANOMALY":"292.4405","ECCENTRICITY":"0.00014180","SEMIMAJOR_AXIS":"6925.360","OBJECT_TYPE":"PAYLOAD","NORAD_CAT_ID":"46368","RCS_SIZE":"LARGE","SITE":"AFETR","MEAN_MOTION_DDOT":"0.0000000000000"},{"FILE":"3505769","REF_FRAME":"TEME","MEAN_ANOMALY":"306.6575","CENTER_NAME":"EARTH","ECCENTRICITY":"0.00014110","LAUNCH_DATE":"2020-09-03","CLASSIFICATION_TYPE":"U","MEAN_MOTION":"15.06392163","TLE_LINE2":"2 46370  53.0547 288.4469 0001411  53.4544 306.6575 15.06392163101403","RA_OF_ASC_NODE":"288.4469","ARG_OF_PERICENTER":"53.4544","REV_AT_EPOCH":"10140","MEAN_MOTION_DDOT":"0.0000000000000","SEMIMAJOR_AXIS":"6925.373","OBJECT_TYPE":"PAYLOAD","NORAD_CAT_ID":"46370","SITE":"AFETR","RCS_SIZE":"LARGE","INCLINATION":"53.0547","EPOCH":"2022-06-30T14:20:27.478464","ELEMENT_SET_NO":"999","TLE_LINE1":"1 46370U 20062AX  22181.59754026  .00000210  00000-0  32971-4 0  9991","DECAY_DATE":null,"OBJECT_ID":"2020-062AX","APOAPSIS":"548.215","PERIOD":"95.593","OBJECT_NAME":"STARLINK-1670","EPHEMERIS_TYPE":"0","TIME_SYSTEM":"UTC","GP_ID":"207145866","PERIAPSIS":"546.260","COUNTRY_CODE":"US","BSTAR":"0.00003297100000","MEAN_ELEMENT_THEORY":"SGP4","MEAN_MOTION_DOT":"0.00000210"},{"SEMIMAJOR_AXIS":"6925.370","OBJECT_TYPE":"PAYLOAD","NORAD_CAT_ID":"46371","RCS_SIZE":"LARGE","SITE":"AFETR","MEAN_MOTION_DDOT":"0.0000000000000","LAUNCH_DATE":"2020-09-03","CLASSIFICATION_TYPE":"U","MEAN_MOTION":"15.06393039","TLE_LINE2":"2 46371  53.0566 288.4677 0001465  69.9267 290.1879 15.06393039101406","RA_OF_ASC_NODE":"288.4677","ARG_OF_PERICENTER":"69.9267","REV_AT_EPOCH":"10140","FILE":"3505946","REF_FRAME":"TEME","CENTER_NAME":"EARTH","MEAN_ANOMALY":"290.1879","ECCENTRICITY":"0.00014650","MEAN_MOTION_DOT":"0.00000539","OBJECT_NAME":"STARLINK-1688","EPHEMERIS_TYPE":"0","TIME_SYSTEM":"UTC","GP_ID":"207173897","PERIAPSIS":"546.220","COUNTRY_CODE":"US","BSTAR":"0.00005507700000","MEAN_ELEMENT_THEORY":"SGP4","TLE_LINE1":"1 46371U 20062AY  22181.59016790  .00000539  00000-0  55077-4 0  9997","DECAY_DATE":null,"OBJECT_ID":"2020-062AY","APOAPSIS":"548.249","PERIOD":"95.593","INCLINATION":"53.0566","EPOCH":"2022-06-30T14:09:50.506560","ELEMENT_SET_NO":"999"},{"MEAN_MOTION_DDOT":"0.0000000000000","SEMIMAJOR_AXIS":"6925.353","OBJECT_TYPE":"PAYLOAD","NORAD_CAT_ID":"46372","SITE":"AFETR","RCS_SIZE":"LARGE","FILE":"3505830","REF_FRAME":"TEME","CENTER_NAME":"EARTH","MEAN_ANOMALY":"300.3090","ECCENTRICITY":"0.00015100","CLASSIFICATION_TYPE":"U","LAUNCH_DATE":"2020-09-03","TLE_LINE2":"2 46372  53.0554 307.8275 0001510  59.8048 300.3090 15.06398483101328","MEAN_MOTION":"15.06398483","RA_OF_ASC_NODE":"307.8275","ARG_OF_PERICENTER":"59.8048","REV_AT_EPOCH":"10132","EPHEMERIS_TYPE":"0","TIME_SYSTEM":"UTC","OBJECT_NAME":"STARLINK-1689","GP_ID":"207152790","PERIAPSIS":"546.172","COUNTRY_CODE":"US","BSTAR":"0.00005097400000","MEAN_ELEMENT_THEORY":"SGP4","MEAN_MOTION_DOT":"0.00000478","INCLINATION":"53.0554","EPOCH":"2022-06-30T17:34:10.998336","ELEMENT_SET_NO":"999","TLE_LINE1":"1 46372U 20062AZ  22181.73207174  .00000478  00000-0  50974-4 0  9995","DECAY_DATE":null,"APOAPSIS":"548.264","OBJECT_ID":"2020-062AZ","PERIOD":"95.592"},{"EPOCH":"2022-06-30T21:05:10.080096","INCLINATION":"53.0533","ELEMENT_SET_NO":"999","OBJECT_ID":"2020-062BB","APOAPSIS":"547.988","PERIOD":"95.592","TLE_LINE1":"1 46374U 20062BB  22181.87858889  .00001452  00000-0  11635-3 0  9990","DECAY_DATE":null,"PERIAPSIS":"546.459","EPHEMERIS_TYPE":"0","OBJECT_NAME":"STARLINK-1711","TIME_SYSTEM":"UTC","GP_ID":"207175397","BSTAR":"0.00011635000000","MEAN_ELEMENT_THEORY":"SGP4","COUNTRY_CODE":"US","MEAN_MOTION_DOT":"0.00001452","MEAN_ANOMALY":"260.1582","CENTER_NAME":"EARTH","FILE":"3505946","REF_FRAME":"TEME","ECCENTRICITY":"0.00011040","MEAN_MOTION":"15.06396630","TLE_LINE2":"2 46374  53.0533 237.1890 0001104  99.9531 260.1582 15.06396630102148","RA_OF_ASC_NODE":"237.1890","CLASSIFICATION_TYPE":"U","LAUNCH_DATE":"2020-09-03","ARG_OF_PERICENTER":"99.9531","REV_AT_EPOCH":"10214","MEAN_MOTION_DDOT":"0.0000000000000","OBJECT_TYPE":"PAYLOAD","SEMIMAJOR_AXIS":"6925.359","RCS_SIZE":"LARGE","SITE":"AFETR","NORAD_CAT_ID":"46374"}];
